{
  "norad_id": 58089,
  "name": "STARLINK-30584",
  "history": [
    {
      "epoch": "2026-04-09T20:32:24.182016Z",
      "apogee_km": 484.0726370994016,
      "perigee_km": 482.04913261919864,
      "latitude_deg": 1.810041606984006e-05,
      "longitude_deg": 115.55132650597616,
      "height_km": 482.8683595517717,
      "semi_major_axis_km": 6861.1978848593,
      "eccentricity": 0.00014746,
      "inclination_deg": 43.0023,
      "raan_deg": 261.7501,
      "arg_perigee_deg": 268.2747,
      "mean_anomaly_deg": 91.7936,
      "mean_motion_rev_day": 15.27576063
    },
    {
      "epoch": "2026-04-11T18:02:56.389056Z",
      "apogee_km": 484.01624887316757,
      "perigee_km": 482.0896267386306,
      "latitude_deg": 5.772653100345308e-05,
      "longitude_deg": 140.33808276892333,
      "height_km": 482.9561073484206,
      "semi_major_axis_km": 6861.189937805899,
      "eccentricity": 0.0001404,
      "inclination_deg": 43.0024,
      "raan_deg": 251.04,
      "arg_perigee_deg": 262.4704,
      "mean_anomaly_deg": 97.5989,
      "mean_motion_rev_day": 15.27578717
    },
    {
      "epoch": "2026-04-12T17:35:16.679616Z",
      "apogee_km": 484.01708461489125,
      "perigee_km": 481.9955173526896,
      "latitude_deg": 6.579798919439679e-06,
      "longitude_deg": 140.74817233778873,
      "height_km": 482.8963008811436,
      "semi_major_axis_km": 6861.14330098379,
      "eccentricity": 0.00014732,
      "inclination_deg": 43.0025,
      "raan_deg": 245.5014,
      "arg_perigee_deg": 263.5821,
      "mean_anomaly_deg": 96.4863,
      "mean_motion_rev_day": 15.27594292
    },
    {
      "epoch": "2026-04-14T16:39:59.089824Z",
      "apogee_km": 484.08418649754094,
      "perigee_km": 482.0491534890207,
      "latitude_deg": 1.4745803476233279e-05,
      "longitude_deg": 141.56083021807922,
      "height_km": 482.87388814927,
      "semi_major_axis_km": 6861.2036699932805,
      "eccentricity": 0.0001483,
      "inclination_deg": 43.0032,
      "raan_deg": 234.4242,
      "arg_perigee_deg": 268.305,
      "mean_anomaly_deg": 91.7632,
      "mean_motion_rev_day": 15.27574131
    },
    {
      "epoch": "2026-04-15T16:12:19.204992Z",
      "apogee_km": 484.0874594921379,
      "perigee_km": 482.0002882703038,
      "latitude_deg": -2.889905973444757e-05,
      "longitude_deg": 141.97116316142268,
      "height_km": 482.8486522226124,
      "semi_major_axis_km": 6861.180873881221,
      "eccentricity": 0.0001521,
      "inclination_deg": 43.0033,
      "raan_deg": 228.8851,
      "arg_perigee_deg": 268.4839,
      "mean_anomaly_deg": 91.5838,
      "mean_motion_rev_day": 15.27581744
    },
    {
      "epoch": "2026-04-16T15:44:40.498656Z",
      "apogee_km": 484.17513708653405,
      "perigee_km": 481.93427187585075,
      "latitude_deg": 9.64065919173244e-06,
      "longitude_deg": 142.37785997324838,
      "height_km": 482.6202500794014,
      "semi_major_axis_km": 6861.191704481192,
      "eccentricity": 0.0001633,
      "inclination_deg": 43.0038,
      "raan_deg": 223.3472,
      "arg_perigee_deg": 280.8951,
      "mean_anomaly_deg": 79.1717,
      "mean_motion_rev_day": 15.27578127
    },
    {
      "epoch": "2026-04-17T15:17:01.066560Z",
      "apogee_km": 484.0471136924525,
      "perigee_km": 482.0656010508437,
      "latitude_deg": 3.9184145886187316e-05,
      "longitude_deg": 142.78337896866984,
      "height_km": 483.20637263292497,
      "semi_major_axis_km": 6861.193357371648,
      "eccentricity": 0.0001444,
      "inclination_deg": 43.0034,
      "raan_deg": 217.8051,
      "arg_perigee_deg": 247.8815,
      "mean_anomaly_deg": 112.1884,
      "mean_motion_rev_day": 15.27577575
    },
    {
      "epoch": "2026-04-18T14:49:21.429696Z",
      "apogee_km": 484.08518629121863,
      "perigee_km": 482.09268627932215,
      "latitude_deg": 2.1127461946683352e-05,
      "longitude_deg": 143.19570177130046,
      "height_km": 483.11752586637766,
      "semi_major_axis_km": 6861.22593628527,
      "eccentricity": 0.0001452,
      "inclination_deg": 43.0029,
      "raan_deg": 212.269,
      "arg_perigee_deg": 255.3719,
      "mean_anomaly_deg": 104.6972,
      "mean_motion_rev_day": 15.27566695
    },
    {
      "epoch": "2026-04-19T14:21:41.676192Z",
      "apogee_km": 484.0610428077425,
      "perigee_km": 481.998576064826,
      "latitude_deg": -3.0004111621305846e-05,
      "longitude_deg": 143.6031754645489,
      "height_km": 483.1350206811539,
      "semi_major_axis_km": 6861.166809436284,
      "eccentricity": 0.0001503,
      "inclination_deg": 43.0034,
      "raan_deg": 206.7276,
      "arg_perigee_deg": 251.445,
      "mean_anomaly_deg": 108.6238,
      "mean_motion_rev_day": 15.27586441
    },
    {
      "epoch": "2026-04-20T12:19:55.064928Z",
      "apogee_km": 484.4803309588151,
      "perigee_km": 481.72197599635456,
      "latitude_deg": 3.968256343771136e-05,
      "longitude_deg": 167.9730700453824,
      "height_km": 483.46652858623776,
      "semi_major_axis_km": 6861.238153477584,
      "eccentricity": 0.00020101,
      "inclination_deg": 43.0063,
      "raan_deg": 201.5555,
      "arg_perigee_deg": 244.7772,
      "mean_anomaly_deg": 115.2872,
      "mean_motion_rev_day": 15.27562615
    },
    {
      "epoch": "2026-04-21T13:26:22.531200Z",
      "apogee_km": 484.01139543999034,
      "perigee_km": 481.9887322335717,
      "latitude_deg": -5.8709974669976796e-06,
      "longitude_deg": 144.42144242922055,
      "height_km": 483.12430761122283,
      "semi_major_axis_km": 6861.137063836781,
      "eccentricity": 0.0001474,
      "inclination_deg": 43.0037,
      "raan_deg": 195.6495,
      "arg_perigee_deg": 249.9218,
      "mean_anomaly_deg": 110.1475,
      "mean_motion_rev_day": 15.27596375
    },
    {
      "epoch": "2026-04-22T12:58:45.653952Z",
      "apogee_km": 484.47640029330614,
      "perigee_km": 481.694860638916,
      "latitude_deg": -2.4346919653049816e-05,
      "longitude_deg": 144.82103202204436,
      "height_km": 483.2445538544043,
      "semi_major_axis_km": 6861.222630466111,
      "eccentricity": 0.0002027,
      "inclination_deg": 43.0041,
      "raan_deg": 190.1122,
      "arg_perigee_deg": 254.0843,
      "mean_anomaly_deg": 105.9785,
      "mean_motion_rev_day": 15.27567799
    },
    {
      "epoch": "2026-04-23T06:14:28.593024Z",
      "apogee_km": 483.9206099145449,
      "perigee_km": 482.1622271094484,
      "latitude_deg": -6.558478632763517e-06,
      "longitude_deg": -118.88038556110196,
      "height_km": 483.19554602444134,
      "semi_major_axis_km": 6861.178418511997,
      "eccentricity": 0.00012814,
      "inclination_deg": 43.0033,
      "raan_deg": 186.0486,
      "arg_perigee_deg": 244.5856,
      "mean_anomaly_deg": 115.4863,
      "mean_motion_rev_day": 15.27582564
    },
    {
      "epoch": "2026-04-24T13:37:36.064992Z",
      "apogee_km": 484.21422679918396,
      "perigee_km": 481.91435212695615,
      "latitude_deg": 1.7335210605733542e-05,
      "longitude_deg": 121.66715194788553,
      "height_km": 482.88319968847304,
      "semi_major_axis_km": 6861.20128946307,
      "eccentricity": 0.0001676,
      "inclination_deg": 43.0048,
      "raan_deg": 178.6662,
      "arg_perigee_deg": 267.9339,
      "mean_anomaly_deg": 92.1321,
      "mean_motion_rev_day": 15.27574926
    },
    {
      "epoch": "2026-04-25T11:35:47.089824Z",
      "apogee_km": 484.08293495357975,
      "perigee_km": 481.9930210552784,
      "latitude_deg": -3.0248758394409778e-05,
      "longitude_deg": 146.0482992777092,
      "height_km": 483.06965363067013,
      "semi_major_axis_km": 6861.174978004428,
      "eccentricity": 0.0001523,
      "inclination_deg": 43.0039,
      "raan_deg": 173.4956,
      "arg_perigee_deg": 255.9033,
      "mean_anomaly_deg": 104.1649,
      "mean_motion_rev_day": 15.27583713
    },
    {
      "epoch": "2026-04-26T20:33:05.025024Z",
      "apogee_km": 483.60925999747724,
      "perigee_km": 482.49610058374674,
      "latitude_deg": -4.83163873087455e-05,
      "longitude_deg": 2.6167374372446566,
      "height_km": 482.8180178945822,
      "semi_major_axis_km": 6861.189680290612,
      "eccentricity": 8.112e-05,
      "inclination_deg": 43.0031,
      "raan_deg": 165.7422,
      "arg_perigee_deg": 271.1536,
      "mean_anomaly_deg": 88.9222,
      "mean_motion_rev_day": 15.27578803
    },
    {
      "epoch": "2026-04-27T20:05:25.564416Z",
      "apogee_km": 484.0219334754256,
      "perigee_km": 482.10628612556866,
      "latitude_deg": 8.054881927099492e-06,
      "longitude_deg": 3.0259035452630463,
      "height_km": 482.79407059235797,
      "semi_major_axis_km": 6861.201109800497,
      "eccentricity": 0.0001396,
      "inclination_deg": 43.0046,
      "raan_deg": 160.2036,
      "arg_perigee_deg": 272.8279,
      "mean_anomaly_deg": 87.2413,
      "mean_motion_rev_day": 15.27574986
    },
    {
      "epoch": "2026-04-28T19:37:47.012736Z",
      "apogee_km": 483.99568123719473,
      "perigee_km": 482.15824813745166,
      "latitude_deg": 3.0418211641178157e-05,
      "longitude_deg": 3.430835765921443,
      "height_km": 482.79238638584314,
      "semi_major_axis_km": 6861.213964687323,
      "eccentricity": 0.0001339,
      "inclination_deg": 43.0043,
      "raan_deg": 154.6646,
      "arg_perigee_deg": 273.8516,
      "mean_anomaly_deg": 86.2183,
      "mean_motion_rev_day": 15.27570693
    },
    {
      "epoch": "2026-04-29T11:19:20.619552Z",
      "apogee_km": 483.92676209753154,
      "perigee_km": 482.19348647999504,
      "latitude_deg": 1.0660165858218288e-05,
      "longitude_deg": 123.70351155023596,
      "height_km": 482.6953958859335,
      "semi_major_axis_km": 6861.197124288763,
      "eccentricity": 0.00012631,
      "inclination_deg": 43.0043,
      "raan_deg": 150.9718,
      "arg_perigee_deg": 279.4171,
      "mean_anomaly_deg": 80.6538,
      "mean_motion_rev_day": 15.27576317
    }
  ]
}